{"type":"FeatureCollection","features":[{"type":"Feature","properties":{},"bbox":[-2.216422,57.103698,-2.05173,57.214389],"geometry":{"type":"Polygon","coordinates":[[[-2.086,57.2],[-2.086,57.2],[-2.086,57.2],[-2.066,57.193],[-2.052,57.188],[-2.062,57.153],[-2.089,57.104],[-2.098,57.106],[-2.117,57.106],[-2.162,57.125],[-2.196,57.159],[-2.209,57.185],[-2.216,57.213],[-2.161,57.214],[-2.106,57.208],[-2.086,57.2]]]}},{"type":"Feature","properties":{},"bbox":[-3.118125,56.440793,-2.813285,56.527403],"geometry":{"type":"Polygon","coordinates":[[[-2.833,56.488],[-2.833,56.488],[-2.833,56.488],[-2.839,56.482],[-2.84,56.475],[-3.047,56.449],[-3.075,56.441],[-3.082,56.451],[-3.105,56.473],[-3.118,56.502],[-3.026,56.511],[-2.928,56.502],[-2.876,56.521],[-2.813,56.527],[-2.815,56.51],[-2.826,56.493],[-2.833,56.488]]]}},{"type":"Feature","properties":{},"bbox":[-3.575306,56.374983,-3.384827,56.470817],"geometry":{"type":"Polygon","coordinates":[[[-3.436,56.375],[-3.436,56.375],[-3.436,56.375],[-3.519,56.38],[-3.575,56.413],[-3.497,56.471],[-3.385,56.464],[-3.409,56.418],[-3.436,56.375]]]}},{"type":"Feature","properties":{},"bbox":[-3.283231,56.093631,-2.984903,56.286074],"geometry":{"type":"Polygon","coordinates":[[[-3.025,56.226],[-3.025,56.226],[-3.025,56.226],[-3.0,56.206],[-2.985,56.191],[-3.155,56.094],[-3.155,56.094],[-3.178,56.102],[-3.2,56.109],[-3.224,56.118],[-3.246,56.13],[-3.266,56.145],[-3.283,56.159],[-3.213,56.215],[-3.156,56.286],[-3.091,56.255],[-3.025,56.226]]]}},{"type":"Feature","properties":{},"bbox":[-3.963861,55.981286,-3.651529,56.184478],"geometry":{"type":"Polygon","coordinates":[[[-3.766,56.159],[-3.766,56.159],[-3.766,56.159],[-3.734,56.115],[-3.72,56.072],[-3.789,56.095],[-3.704,56.043],[-3.696,56.041],[-3.678,56.025],[-3.652,55.981],[-3.728,55.981],[-3.804,55.981],[-3.834,56.031],[-3.829,56.096],[-3.88,56.089],[-3.931,56.083],[-3.964,56.128],[-3.956,56.184],[-3.916,56.167],[-3.88,56.146],[-3.826,56.156],[-3.766,56.159]]]}},{"type":"Feature","properties":{},"bbox":[-3.562645,55.841605,-3.003816,56.00051],"geometry":{"type":"Polygon","coordinates":[[[-3.525,55.981],[-3.525,55.981],[-3.525,55.981],[-3.49,55.991],[-3.473,56.001],[-3.049,55.952],[-3.015,55.959],[-3.006,55.962],[-3.005,55.937],[-3.004,55.867],[-3.036,55.854],[-3.067,55.842],[-3.204,55.883],[-3.347,55.918],[-3.398,55.896],[-3.448,55.905],[-3.499,55.871],[-3.563,55.88],[-3.538,55.925],[-3.525,55.981]]]}},{"type":"Feature","properties":{},"bbox":[-3.490867,56.02764,-3.347749,56.096473],"geometry":{"type":"Polygon","coordinates":[[[-3.37,56.068],[-3.37,56.068],[-3.37,56.068],[-3.369,56.049],[-3.348,56.03],[-3.362,56.028],[-3.48,56.033],[-3.482,56.033],[-3.491,56.043],[-3.486,56.083],[-3.451,56.096],[-3.412,56.093],[-3.389,56.088],[-3.375,56.08],[-3.37,56.068]]]}},{"type":"Feature","properties":{},"bbox":[-4.48972,55.739983,-3.880145,55.955887],"geometry":{"type":"Polygon","coordinates":[[[-3.931,55.842],[-3.931,55.842],[-3.931,55.842],[-3.908,55.801],[-3.88,55.765],[-3.963,55.76],[-4.045,55.753],[-4.076,55.76],[-4.096,55.778],[-4.137,55.756],[-4.185,55.74],[-4.216,55.753],[-4.236,55.778],[-4.282,55.773],[-4.325,55.765],[-4.401,55.803],[-4.49,55.829],[-4.459,55.881],[-4.426,55.93],[-4.34,55.938],[-4.274,55.918],[-4.202,55.929],[-4.147,55.956],[-4.099,55.921],[-4.045,55.892],[-3.974,55.903],[-3.906,55.918],[-3.902,55.877],[-3.931,55.842]]]}},{"type":"Feature","properties":{},"bbox":[-1.784614,54.495382,-0.976007,55.233476],"geometry":{"type":"Polygon","coordinates":[[[-1.524,55.223],[-1.524,55.223],[-1.524,55.223],[-1.514,55.22],[-1.504,55.217],[-1.423,55.026],[-1.292,54.774],[-1.232,54.704],[-1.154,54.654],[-0.976,54.603],[-0.982,54.596],[-0.997,54.566],[-1.019,54.543],[-1.041,54.544],[-1.062,54.55],[-1.087,54.554],[-1.111,54.548],[-1.16,54.529],[-1.21,54.514],[-1.275,54.502],[-1.34,54.495],[-1.357,54.536],[-1.366,54.584],[-1.317,54.631],[-1.264,54.673],[-1.327,54.725],[-1.378,54.787],[-1.475,54.789],[-1.543,54.762],[-1.526,54.735],[-1.493,54.724],[-1.523,54.691],[-1.569,54.673],[-1.602,54.636],[-1.658,54.622],[-1.649,54.689],[-1.607,54.749],[-1.631,54.84],[-1.658,54.927],[-1.721,54.934],[-1.785,54.94],[-1.775,55.0],[-1.759,55.054],[-1.702,55.054],[-1.658,55.067],[-1.652,55.118],[-1.67,55.168],[-1.655,55.207],[-1.618,55.229],[-1.592,55.233],[-1.566,55.233],[-1.548,55.232],[-1.533,55.227],[-1.524,55.223]]]}},{"type":"Feature","properties":{},"bbox":[-6.064508,54.495382,-5.832946,54.700615],"geometry":{"type":"Polygon","coordinates":[[[-5.857,54.699],[-5.857,54.699],[-5.857,54.699],[-5.846,54.7],[-5.836,54.7],[-5.879,54.684],[-5.879,54.641],[-5.834,54.654],[-5.833,54.644],[-5.833,54.626],[-5.836,54.61],[-5.873,54.558],[-5.95,54.546],[-6.002,54.515],[-6.065,54.495],[-6.012,54.591],[-5.988,54.686],[-5.965,54.697],[-5.94,54.699],[-5.913,54.7],[-5.887,54.7],[-5.881,54.7],[-5.876,54.701],[-5.866,54.7],[-5.857,54.699]]]}},{"type":"Feature","properties":{},"bbox":[-1.162327,53.91118,-1.022645,54.050887],"geometry":{"type":"Polygon","coordinates":[[[-1.099,53.911],[-1.099,53.911],[-1.099,53.911],[-1.159,53.967],[-1.162,54.051],[-1.123,54.04],[-1.099,54.013],[-1.058,54.024],[-1.023,54.013],[-1.037,53.939],[-1.099,53.911]]]}},{"type":"Feature","properties":{},"bbox":[-3.045364,53.757882,-2.978443,53.916218],"geometry":{"type":"Polygon","coordinates":[[[-2.982,53.832],[-2.982,53.832],[-2.982,53.832],[-2.997,53.768],[-3.004,53.758],[-3.032,53.774],[-3.045,53.844],[-3.027,53.906],[-3.003,53.916],[-2.99,53.906],[-2.978,53.898],[-2.982,53.832]]]}},{"type":"Feature","properties":{},"bbox":[-2.508498,53.697911,-2.178285,53.873094],"geometry":{"type":"Polygon","coordinates":[[[-2.204,53.873],[-2.204,53.873],[-2.204,53.873],[-2.187,53.871],[-2.178,53.86],[-2.219,53.787],[-2.318,53.771],[-2.351,53.744],[-2.407,53.721],[-2.467,53.698],[-2.508,53.759],[-2.34,53.8],[-2.204,53.873]]]}},{"type":"Feature","properties":{},"bbox":[-2.749827,53.619053,-2.597433,53.809584],"geometry":{"type":"Polygon","coordinates":[[[-2.661,53.81],[-2.661,53.81],[-2.661,53.81],[-2.622,53.728],[-2.597,53.632],[-2.615,53.63],[-2.623,53.619],[-2.663,53.636],[-2.699,53.657],[-2.723,53.684],[-2.75,53.708],[-2.738,53.791],[-2.661,53.81]]]}},{"type":"Feature","properties":{},"bbox":[-0.331008,53.517044,-0.033093,53.692744],"geometry":{"type":"Polygon","coordinates":[[[-0.325,53.66],[-0.325,53.66],[-0.325,53.66],[-0.327,53.676],[-0.331,53.693],[-0.294,53.692],[-0.033,53.554],[-0.035,53.546],[-0.048,53.527],[-0.083,53.517],[-0.119,53.525],[-0.137,53.533],[-0.153,53.544],[-0.159,53.55],[-0.165,53.556],[-0.168,53.563],[-0.172,53.568],[-0.216,53.581],[-0.261,53.594],[-0.287,53.627],[-0.324,53.645],[-0.325,53.66]]]}},{"type":"Feature","properties":{},"bbox":[-0.512806,53.663908,-0.120943,53.87821],"geometry":{"type":"Polygon","coordinates":[[[-0.128,53.708],[-0.128,53.708],[-0.128,53.708],[-0.124,53.677],[-0.122,53.664],[-0.174,53.685],[-0.27,53.737],[-0.461,53.716],[-0.513,53.721],[-0.512,53.747],[-0.503,53.783],[-0.473,53.835],[-0.426,53.872],[-0.371,53.878],[-0.324,53.848],[-0.286,53.848],[-0.248,53.848],[-0.182,53.806],[-0.121,53.759],[-0.126,53.733],[-0.128,53.708]]]}},{"type":"Feature","properties":{},"bbox":[-0.806741,53.53017,-0.476529,53.682589],"geometry":{"type":"Polygon","coordinates":[[[-0.756,53.562],[-0.756,53.562],[-0.756,53.562],[-0.807,53.606],[-0.73,53.663],[-0.616,53.683],[-0.536,53.642],[-0.477,53.581],[-0.574,53.548],[-0.692,53.53],[-0.756,53.562]]]}},{"type":"Feature","properties":{},"bbox":[-6.483604,53.181354,-6.079236,53.434077],"geometry":{"type":"Polygon","coordinates":[[[-6.333,53.43],[-6.333,53.43],[-6.333,53.43],[-6.231,53.434],[-6.134,53.429],[-6.129,53.391],[-6.152,53.366],[-6.135,53.301],[-6.079,53.181],[-6.102,53.192],[-6.123,53.209],[-6.14,53.229],[-6.157,53.25],[-6.179,53.263],[-6.293,53.263],[-6.407,53.263],[-6.44,53.313],[-6.484,53.352],[-6.418,53.408],[-6.333,53.43]]]}},{"type":"Feature","properties":{},"bbox":[-0.667008,53.164869,-0.438443,53.326978],"geometry":{"type":"Polygon","coordinates":[[[-0.578,53.327],[-0.578,53.327],[-0.578,53.327],[-0.503,53.32],[-0.438,53.302],[-0.533,53.165],[-0.667,53.225],[-0.631,53.285],[-0.578,53.327]]]}},{"type":"Feature","properties":{},"bbox":[-2.279933,52.961625,-2.089402,53.085701],"geometry":{"type":"Polygon","coordinates":[[[-2.198,52.962],[-2.198,52.962],[-2.198,52.962],[-2.28,53.009],[-2.28,53.048],[-2.28,53.086],[-2.152,53.077],[-2.089,52.971],[-2.198,52.962]]]}},{"type":"Feature","properties":{},"bbox":[-1.695731,52.717403,-1.5052,52.844372],"geometry":{"type":"Polygon","coordinates":[[[-1.555,52.737],[-1.555,52.737],[-1.555,52.737],[-1.594,52.768],[-1.65,52.77],[-1.696,52.781],[-1.662,52.824],[-1.607,52.844],[-1.524,52.798],[-1.505,52.717],[-1.555,52.737]]]}},{"type":"Feature","properties":{},"bbox":[-2.546635,52.628468,-2.394241,52.744998],"geometry":{"type":"Polygon","coordinates":[[[-2.547,52.73],[-2.547,52.73],[-2.547,52.73],[-2.47,52.745],[-2.394,52.73],[-2.396,52.669],[-2.42,52.628],[-2.504,52.659],[-2.547,52.73]]]}},{"type":"Feature","properties":{},"bbox":[-2.216422,52.374478,-1.619508,52.731665],"geometry":{"type":"Polygon","coordinates":[[[-1.785,52.73],[-1.785,52.73],[-1.785,52.73],[-1.697,52.685],[-1.62,52.628],[-1.646,52.585],[-1.696,52.565],[-1.683,52.514],[-1.67,52.463],[-1.717,52.421],[-1.759,52.374],[-1.879,52.384],[-2.001,52.374],[-2.037,52.395],[-2.064,52.425],[-2.155,52.429],[-2.216,52.463],[-2.201,52.543],[-2.191,52.628],[-2.169,52.621],[-2.14,52.628],[-2.036,52.732],[-1.873,52.679],[-1.821,52.697],[-1.785,52.73]]]}},{"type":"Feature","properties":{},"bbox":[1.187194,52.596661,1.403098,52.70469],"geometry":{"type":"Polygon","coordinates":[[[1.263,52.705],[1.263,52.705],[1.263,52.705],[1.326,52.685],[1.403,52.679],[1.292,52.597],[1.187,52.679],[1.226,52.684],[1.263,52.705]]]}},{"type":"Feature","properties":{},"bbox":[-0.36222,52.514185,-0.108231,52.691978],"geometry":{"type":"Polygon","coordinates":[[[-0.286,52.514],[-0.286,52.514],[-0.286,52.514],[-0.331,52.571],[-0.362,52.641],[-0.353,52.67],[-0.337,52.692],[-0.257,52.676],[-0.172,52.667],[-0.136,52.626],[-0.108,52.578],[-0.193,52.541],[-0.286,52.514]]]}},{"type":"Feature","properties":{},"bbox":[1.673108,52.450701,1.746591,52.65242],"geometry":{"type":"Polygon","coordinates":[[[1.706,52.651],[1.706,52.651],[1.706,52.651],[1.721,52.652],[1.723,52.652],[1.743,52.578],[1.747,52.469],[1.74,52.454],[1.734,52.453],[1.721,52.451],[1.708,52.451],[1.704,52.474],[1.699,52.5],[1.69,52.529],[1.681,52.557],[1.673,52.604],[1.692,52.645],[1.706,52.651]]]}},{"type":"Feature","properties":{},"bbox":[-1.594135,52.36559,-1.31472,52.615781],"geometry":{"type":"Polygon","coordinates":[[[-1.375,52.561],[-1.375,52.561],[-1.375,52.561],[-1.315,52.578],[-1.366,52.527],[-1.429,52.489],[-1.42,52.441],[-1.416,52.387],[-1.511,52.366],[-1.594,52.4],[-1.564,52.434],[-1.531,52.463],[-1.548,52.542],[-1.569,52.616],[-1.499,52.59],[-1.442,52.552],[-1.375,52.561]]]}},{"type":"Feature","properties":{},"bbox":[-0.730518,52.284768,-0.578125,52.437988],"geometry":{"type":"Polygon","coordinates":[[[-0.654,52.374],[-0.654,52.374],[-0.654,52.374],[-0.61,52.374],[-0.578,52.362],[-0.589,52.321],[-0.603,52.286],[-0.674,52.285],[-0.731,52.298],[-0.73,52.377],[-0.718,52.438],[-0.677,52.415],[-0.654,52.374]]]}},{"type":"Feature","properties":{},"bbox":[-0.247912,52.32368,-0.070145,52.40476],"geometry":{"type":"Polygon","coordinates":[[[-0.248,52.374],[-0.248,52.374],[-0.248,52.374],[-0.163,52.405],[-0.07,52.362],[-0.124,52.327],[-0.21,52.324],[-0.227,52.351],[-0.248,52.374]]]}},{"type":"Feature","properties":{},"bbox":[0.061526,52.158574,0.196557,52.298281],"geometry":{"type":"Polygon","coordinates":[[[0.082,52.159],[0.082,52.159],[0.082,52.159],[0.062,52.268],[0.197,52.298],[0.186,52.197],[0.082,52.159]]]}},{"type":"Feature","properties":{},"bbox":[-0.971847,52.196685,-0.794029,52.286731],"geometry":{"type":"Polygon","coordinates":[[[-0.972,52.286],[-0.972,52.286],[-0.972,52.286],[-0.875,52.287],[-0.794,52.273],[-0.823,52.22],[-0.883,52.197],[-0.945,52.223],[-0.972,52.286]]]}},{"type":"Feature","properties":{},"bbox":[-0.349508,52.06969,-0.234786,52.1856],"geometry":{"type":"Polygon","coordinates":[[[-0.235,52.114],[-0.235,52.114],[-0.235,52.114],[-0.248,52.07],[-0.33,52.089],[-0.35,52.171],[-0.292,52.186],[-0.235,52.171],[-0.235,52.114]]]}},{"type":"Feature","properties":{},"bbox":[1.084823,52.018892,1.276078,52.133149],"geometry":{"type":"Polygon","coordinates":[[[1.086,52.12],[1.086,52.12],[1.086,52.12],[1.199,52.133],[1.276,52.082],[1.219,52.025],[1.111,52.019],[1.085,52.069],[1.086,52.12]]]}},{"type":"Feature","properties":{},"bbox":[-0.844827,51.968094,-0.667008,52.120488],"geometry":{"type":"Polygon","coordinates":[[[-0.769,52.12],[-0.769,52.12],[-0.769,52.12],[-0.708,52.092],[-0.667,52.044],[-0.684,51.998],[-0.718,51.968],[-0.787,52.007],[-0.845,52.057],[-0.803,52.085],[-0.769,52.12]]]}},{"type":"Feature","properties":{},"bbox":[-0.29871,51.879185,-0.146316,52.018892],"geometry":{"type":"Polygon","coordinates":[[[-0.197,52.019],[-0.197,52.019],[-0.197,52.019],[-0.174,51.959],[-0.146,51.905],[-0.162,51.895],[-0.172,51.879],[-0.24,51.906],[-0.299,51.943],[-0.265,51.998],[-0.197,52.019]]]}},{"type":"Feature","properties":{},"bbox":[-2.292645,51.828387,-2.038604,51.955382],"geometry":{"type":"Polygon","coordinates":[[[-2.077,51.955],[-2.077,51.955],[-2.077,51.955],[-2.042,51.939],[-2.039,51.892],[-2.156,51.857],[-2.28,51.828],[-2.282,51.846],[-2.293,51.854],[-2.27,51.895],[-2.216,51.905],[-2.202,51.918],[-2.191,51.93],[-2.129,51.935],[-2.077,51.955]]]}},{"type":"Feature","properties":{},"bbox":[-1.327433,51.599796,-1.175039,51.777589],"geometry":{"type":"Polygon","coordinates":[[[-1.264,51.778],[-1.264,51.778],[-1.264,51.778],[-1.219,51.778],[-1.175,51.778],[-1.181,51.72],[-1.226,51.701],[-1.226,51.651],[-1.226,51.6],[-1.282,51.601],[-1.327,51.612],[-1.295,51.694],[-1.264,51.778]]]}},{"type":"Feature","properties":{},"bbox":[-4.0452,51.503006,-3.704006,51.668836],"geometry":{"type":"Polygon","coordinates":[[[-3.741,51.584],[-3.741,51.584],[-3.741,51.584],[-3.714,51.555],[-3.704,51.503],[-3.763,51.54],[-3.891,51.592],[-3.944,51.598],[-3.998,51.582],[-4.013,51.58],[-4.021,51.609],[-4.039,51.636],[-4.045,51.663],[-3.91,51.669],[-3.778,51.663],[-3.779,51.639],[-3.769,51.613],[-3.741,51.584]]]}},{"type":"Feature","properties":{},"bbox":[-3.080039,51.535201,-2.872765,51.675968],"geometry":{"type":"Polygon","coordinates":[[[-2.926,51.601],[-2.926,51.601],[-2.926,51.601],[-2.879,51.567],[-2.873,51.558],[-2.979,51.539],[-2.987,51.535],[-3.005,51.546],[-3.024,51.556],[-3.044,51.564],[-3.065,51.573],[-3.08,51.587],[-3.064,51.634],[-3.042,51.676],[-3.023,51.676],[-3.004,51.676],[-3.003,51.66],[-3.0,51.642],[-2.992,51.631],[-2.98,51.623],[-2.926,51.601]]]}},{"type":"Feature","properties":{},"bbox":[-3.259046,51.42836,-3.087015,51.574372],"geometry":{"type":"Polygon","coordinates":[[[-3.093,51.549],[-3.093,51.549],[-3.093,51.549],[-3.087,51.504],[-3.087,51.492],[-3.204,51.428],[-3.205,51.43],[-3.228,51.447],[-3.248,51.466],[-3.258,51.493],[-3.259,51.496],[-3.259,51.498],[-3.254,51.53],[-3.23,51.556],[-3.226,51.56],[-3.224,51.565],[-3.228,51.571],[-3.232,51.574],[-3.181,51.559],[-3.093,51.549]]]}},{"type":"Feature","properties":{},"bbox":[-2.772254,51.396553,-2.4577,51.561685],"geometry":{"type":"Polygon","coordinates":[[[-2.743,51.477],[-2.743,51.477],[-2.743,51.477],[-2.759,51.484],[-2.772,51.486],[-2.687,51.537],[-2.678,51.544],[-2.659,51.542],[-2.639,51.539],[-2.619,51.54],[-2.6,51.544],[-2.585,51.553],[-2.572,51.562],[-2.502,51.524],[-2.458,51.46],[-2.512,51.407],[-2.61,51.397],[-2.63,51.44],[-2.648,51.485],[-2.685,51.478],[-2.727,51.471],[-2.743,51.477]]]}},{"type":"Feature","properties":{},"bbox":[-1.060731,51.396553,-0.832114,51.497115],"geometry":{"type":"Polygon","coordinates":[[[-1.061,51.422],[-1.061,51.422],[-1.061,51.422],[-0.938,51.497],[-0.832,51.397],[-0.947,51.408],[-1.061,51.422]]]}},{"type":"Feature","properties":{},"bbox":[2.115406,50.939372,2.517862,51.089879],"geometry":{"type":"Polygon","coordinates":[[[2.116,51.02],[2.116,51.02],[2.116,51.02],[2.446,51.066],[2.506,51.09],[2.518,51.078],[2.498,51.049],[2.467,51.028],[2.451,51.016],[2.435,51.004],[2.421,50.989],[2.406,50.977],[2.288,50.975],[2.203,50.939],[2.166,50.954],[2.132,50.974],[2.12,50.988],[2.115,51.005],[2.116,51.02]]]}},{"type":"Feature","properties":{},"bbox":[2.431769,50.266286,3.676396,51.040968],"geometry":{"type":"Polygon","coordinates":[[[3.676,50.431],[3.676,50.431],[3.676,50.431],[3.616,50.365],[3.537,50.317],[3.492,50.317],[3.448,50.317],[3.392,50.29],[3.333,50.266],[3.271,50.306],[3.219,50.355],[3.142,50.337],[3.054,50.33],[3.004,50.35],[2.965,50.381],[2.768,50.399],[2.622,50.469],[2.522,50.457],[2.432,50.508],[2.442,50.585],[2.444,50.647],[2.512,50.632],[2.533,50.571],[2.659,50.579],[2.762,50.533],[2.9,50.567],[2.965,50.673],[3.016,50.692],[3.067,50.711],[3.035,50.749],[3.003,50.787],[3.07,50.796],[3.13,50.812],[3.16,50.84],[3.194,50.863],[3.155,50.913],[3.092,50.939],[3.106,50.995],[3.13,51.041],[3.207,50.977],[3.321,50.977],[3.304,50.937],[3.283,50.901],[3.313,50.899],[3.346,50.927],[3.402,50.925],[3.448,50.914],[3.395,50.814],[3.27,50.787],[3.27,50.73],[3.27,50.673],[3.215,50.626],[3.181,50.558],[3.132,50.537],[3.079,50.52],[3.138,50.464],[3.207,50.419],[3.271,50.407],[3.333,50.393],[3.41,50.4],[3.486,50.406],[3.538,50.43],[3.575,50.469],[3.622,50.447],[3.676,50.431]]]}},{"type":"Feature","properties":{},"bbox":[-1.5052,50.819224,-0.971847,51.015594],"geometry":{"type":"Polygon","coordinates":[[[-0.972,50.889],[-0.972,50.889],[-0.972,50.889],[-1.006,50.827],[-1.017,50.819],[-1.133,50.845],[-1.285,50.857],[-1.416,50.897],[-1.391,50.873],[-1.408,50.878],[-1.444,50.886],[-1.461,50.891],[-1.479,50.897],[-1.493,50.904],[-1.505,50.914],[-1.452,50.969],[-1.391,51.016],[-1.378,51.016],[-1.366,51.016],[-1.304,50.963],[-1.264,50.889],[-1.188,50.882],[-1.124,50.863],[-1.043,50.897],[-0.972,50.889]]]}},{"type":"Feature","properties":{},"bbox":[1.784367,50.913482,1.961875,50.995647],"geometry":{"type":"Polygon","coordinates":[[[1.784,50.942],[1.784,50.942],[1.784,50.942],[1.912,50.991],[1.948,50.996],[1.957,50.986],[1.962,50.965],[1.925,50.927],[1.871,50.913],[1.809,50.915],[1.784,50.942]]]}},{"type":"Feature","properties":{},"bbox":[-2.028114,50.715251,-1.695472,50.837776],"geometry":{"type":"Polygon","coordinates":[[[-1.698,50.746],[-1.698,50.746],[-1.698,50.746],[-1.696,50.735],[-1.695,50.734],[-1.866,50.715],[-2.015,50.724],[-2.018,50.727],[-2.023,50.736],[-2.026,50.746],[-2.028,50.761],[-2.026,50.774],[-1.95,50.781],[-1.912,50.838],[-1.86,50.807],[-1.823,50.762],[-1.777,50.771],[-1.731,50.78],[-1.713,50.773],[-1.702,50.758],[-1.698,50.746]]]}},{"type":"Feature","properties":{},"bbox":[2.24129,49.859205,2.406396,49.948321],"geometry":{"type":"Polygon","coordinates":[[[2.341,49.948],[2.341,49.948],[2.341,49.948],[2.406,49.873],[2.294,49.859],[2.241,49.936],[2.341,49.948]]]}},{"type":"Feature","properties":{},"bbox":[0.119301,49.463286,0.305801,49.554547],"geometry":{"type":"Polygon","coordinates":[[[0.278,49.463],[0.278,49.463],[0.278,49.463],[0.129,49.508],[0.119,49.533],[0.174,49.555],[0.236,49.54],[0.288,49.502],[0.298,49.488],[0.304,49.473],[0.305,49.47],[0.306,49.465],[0.306,49.465],[0.278,49.463]]]}},{"type":"Feature","properties":{},"bbox":[0.97129,49.224903,1.276078,49.52969],"geometry":{"type":"Polygon","coordinates":[[[1.226,49.249],[1.226,49.249],[1.226,49.249],[1.162,49.225],[1.18,49.258],[1.174,49.288],[1.081,49.273],[0.997,49.276],[0.989,49.319],[0.971,49.352],[0.986,49.382],[1.009,49.403],[1.01,49.472],[1.022,49.53],[1.109,49.502],[1.174,49.453],[1.178,49.362],[1.2,49.288],[1.238,49.288],[1.276,49.288],[1.226,49.249]]]}},{"type":"Feature","properties":{},"bbox":[-0.438443,49.135812,-0.247912,49.334663],"geometry":{"type":"Polygon","coordinates":[[[-0.398,49.325],[-0.398,49.325],[-0.398,49.325],[-0.398,49.335],[-0.315,49.321],[-0.316,49.32],[-0.314,49.29],[-0.306,49.265],[-0.294,49.272],[-0.285,49.282],[-0.265,49.291],[-0.248,49.288],[-0.248,49.225],[-0.248,49.161],[-0.348,49.136],[-0.438,49.174],[-0.408,49.226],[-0.362,49.263],[-0.379,49.287],[-0.395,49.312],[-0.398,49.325]]]}},{"type":"Feature","properties":{},"bbox":[-0.755943,51.218786,0.806184,51.853786],"geometry":{"type":"Polygon","coordinates":[[[0.803,51.569],[0.803,51.569],[0.803,51.569],[0.795,51.552],[0.792,51.537],[0.698,51.523],[0.593,51.519],[0.507,51.501],[0.425,51.466],[0.528,51.484],[0.6,51.468],[0.629,51.427],[0.618,51.422],[0.603,51.422],[0.618,51.387],[0.628,51.346],[0.584,51.306],[0.578,51.244],[0.501,51.255],[0.425,51.295],[0.428,51.336],[0.438,51.371],[0.358,51.394],[0.273,51.397],[0.187,51.368],[0.095,51.346],[0.062,51.334],[0.044,51.308],[0.012,51.32],[-0.019,51.333],[-0.092,51.259],[-0.197,51.219],[-0.202,51.249],[-0.184,51.282],[-0.267,51.285],[-0.337,51.295],[-0.337,51.32],[-0.337,51.346],[-0.384,51.349],[-0.413,51.371],[-0.451,51.352],[-0.489,51.333],[-0.552,51.385],[-0.591,51.46],[-0.616,51.46],[-0.642,51.46],[-0.704,51.499],[-0.756,51.549],[-0.639,51.544],[-0.527,51.524],[-0.45,51.579],[-0.426,51.689],[-0.465,51.72],[-0.489,51.765],[-0.436,51.788],[-0.388,51.765],[-0.327,51.794],[-0.261,51.778],[-0.234,51.815],[-0.21,51.854],[-0.189,51.849],[-0.172,51.841],[-0.186,51.773],[-0.223,51.727],[-0.13,51.71],[-0.019,51.727],[-0.044,51.778],[-0.07,51.828],[0.043,51.83],[0.146,51.79],[0.141,51.731],[0.12,51.689],[0.21,51.632],[0.298,51.574],[0.346,51.584],[0.387,51.6],[0.349,51.612],[0.311,51.625],[0.332,51.667],[0.387,51.676],[0.429,51.654],[0.463,51.625],[0.543,51.632],[0.616,51.612],[0.723,51.634],[0.806,51.587],[0.803,51.569]]]}},{"type":"Feature","properties":{},"bbox":[-3.165589,53.162466,-1.975145,53.691503],"geometry":{"type":"Polygon","coordinates":[[[-3.114,53.321],[-3.114,53.321],[-3.114,53.321],[-3.13,53.342],[-3.141,53.347],[-3.166,53.395],[-3.065,53.427],[-2.919,53.305],[-2.864,53.293],[-2.75,53.31],[-2.794,53.331],[-2.845,53.332],[-2.913,53.35],[-2.97,53.389],[-3.065,53.513],[-3.059,53.586],[-2.996,53.663],[-2.967,53.692],[-2.966,53.691],[-2.96,53.687],[-2.954,53.682],[-2.948,53.648],[-2.965,53.619],[-2.979,53.61],[-2.994,53.602],[-3.006,53.591],[-3.017,53.581],[-2.918,53.609],[-2.826,53.644],[-2.786,53.614],[-2.737,53.594],[-2.603,53.604],[-2.496,53.568],[-2.473,53.596],[-2.445,53.619],[-2.394,53.607],[-2.356,53.581],[-2.301,53.608],[-2.229,53.619],[-2.202,53.649],[-2.166,53.67],[-2.091,53.604],[-2.039,53.517],[-2.009,53.49],[-1.975,53.467],[-1.993,53.44],[-2.026,53.429],[-2.062,53.401],[-2.089,53.365],[-2.145,53.351],[-2.191,53.327],[-2.325,53.358],[-2.47,53.378],[-2.506,53.362],[-2.534,53.34],[-2.608,53.332],[-2.661,53.302],[-2.682,53.3],[-2.704,53.301],[-2.722,53.294],[-2.741,53.287],[-2.76,53.286],[-2.779,53.283],[-2.79,53.279],[-2.8,53.271],[-2.827,53.258],[-2.851,53.251],[-2.843,53.221],[-2.839,53.187],[-2.885,53.162],[-2.94,53.175],[-2.937,53.21],[-2.915,53.225],[-2.942,53.256],[-2.974,53.281],[-3.012,53.297],[-3.053,53.303],[-3.087,53.303],[-3.114,53.321]]]}},{"type":"Feature","properties":{},"bbox":[-1.924347,52.563975,-0.794029,53.898468],"geometry":{"type":"Polygon","coordinates":[[[-1.01,52.692],[-1.01,52.692],[-1.01,52.692],[-1.035,52.622],[-1.073,52.565],[-1.179,52.564],[-1.289,52.578],[-1.261,52.67],[-1.188,52.717],[-1.219,52.743],[-1.277,52.743],[-1.303,52.712],[-1.327,52.679],[-1.382,52.695],[-1.429,52.717],[-1.408,52.747],[-1.366,52.755],[-1.365,52.82],[-1.378,52.87],[-1.502,52.864],[-1.556,52.946],[-1.463,52.968],[-1.378,52.971],[-1.364,53.001],[-1.353,53.035],[-1.376,53.05],[-1.404,53.06],[-1.388,53.089],[-1.366,53.111],[-1.389,53.151],[-1.429,53.175],[-1.44,53.208],[-1.467,53.225],[-1.489,53.317],[-1.531,53.39],[-1.52,53.437],[-1.505,53.479],[-1.528,53.54],[-1.556,53.594],[-1.618,53.615],[-1.67,53.644],[-1.743,53.622],[-1.835,53.619],[-1.882,53.68],[-1.912,53.759],[-1.868,53.772],[-1.835,53.797],[-1.87,53.845],[-1.924,53.873],[-1.852,53.87],[-1.785,53.86],[-1.737,53.876],[-1.696,53.898],[-1.667,53.889],[-1.645,53.873],[-1.542,53.874],[-1.467,53.848],[-1.439,53.87],[-1.404,53.886],[-1.347,53.853],[-1.302,53.81],[-1.26,53.825],[-1.213,53.835],[-1.185,53.767],[-1.162,53.695],[-1.205,53.674],[-1.264,53.67],[-1.215,53.656],[-1.15,53.657],[-1.108,53.635],[-1.061,53.619],[-1.015,53.643],[-0.985,53.683],[-1.051,53.743],[-1.15,53.771],[-1.15,53.803],[-1.15,53.835],[-1.064,53.851],[-0.985,53.848],[-0.967,53.802],[-0.946,53.759],[-0.874,53.797],[-0.794,53.771],[-0.824,53.7],[-0.896,53.67],[-0.96,53.576],[-0.997,53.454],[-1.035,53.428],[-1.086,53.416],[-1.072,53.354],[-1.073,53.302],[-1.131,53.289],[-1.2,53.289],[-1.143,53.239],[-1.086,53.187],[-1.097,53.141],[-1.124,53.111],[-1.028,53.043],[-0.946,52.959],[-0.956,52.95],[-0.959,52.933],[-0.995,52.923],[-1.035,52.933],[-1.069,52.904],[-1.099,52.87],[-1.159,52.866],[-1.2,52.844],[-1.266,52.856],[-1.302,52.819],[-1.267,52.807],[-1.226,52.819],[-1.173,52.789],[-1.137,52.743],[-1.068,52.723],[-1.01,52.692]]]}},{"type":"Feature","properties":{},"bbox":[1.619002,48.386685,2.977886,49.428094],"geometry":{"type":"Polygon","coordinates":[[[2.759,48.84],[2.759,48.84],[2.759,48.84],[2.711,48.818],[2.705,48.793],[2.711,48.755],[2.679,48.742],[2.648,48.73],[2.665,48.626],[2.711,48.552],[2.7,48.511],[2.711,48.476],[2.768,48.444],[2.8,48.387],[2.742,48.398],[2.686,48.412],[2.686,48.463],[2.673,48.501],[2.622,48.501],[2.572,48.501],[2.481,48.544],[2.381,48.564],[2.398,48.515],[2.381,48.476],[2.336,48.5],[2.317,48.552],[2.241,48.552],[2.178,48.564],[2.181,48.593],[2.19,48.615],[2.097,48.674],[2.013,48.742],[1.959,48.739],[1.911,48.73],[1.906,48.757],[1.898,48.78],[1.88,48.806],[1.873,48.844],[1.96,48.846],[2.038,48.857],[1.987,48.907],[1.924,48.945],[1.765,48.951],[1.619,48.996],[1.619,49.041],[1.619,49.085],[1.687,49.058],[1.733,49.009],[1.789,49.019],[1.848,49.009],[1.903,49.027],[1.949,49.022],[1.994,49.059],[2.038,49.098],[2.163,49.113],[2.229,49.187],[2.296,49.185],[2.356,49.174],[2.379,49.22],[2.419,49.25],[2.414,49.349],[2.419,49.428],[2.454,49.412],[2.457,49.365],[2.497,49.328],[2.533,49.288],[2.491,49.21],[2.444,49.136],[2.514,49.137],[2.572,49.149],[2.58,49.103],[2.559,49.06],[2.598,49.029],[2.66,49.022],[2.722,48.969],[2.813,48.945],[2.855,48.967],[2.889,48.996],[2.94,48.99],[2.978,48.971],[2.903,48.906],[2.825,48.844],[2.759,48.84]]]}}]}
